GLOBALSTAR M075         
1 37192U 10054E   25103.77741769 -.00000082  00000+0  11914-3 0  9990
2 37192  51.9977  17.6481 0000589  76.1548 301.3767 12.62263358667714
GLOBALSTAR M073         
1 37193U 10054F   25104.49050897 -.00000093  00000+0  62781-4 0  9997
2 37193  52.0058 289.2517 0000809 111.0944 266.7908 12.62270454669840
GLOBALSTAR M083         
1 37739U 11033A   25103.82305313 -.00000086  00000+0  10125-3 0  9999
2 37739  51.9851 240.1000 0000845 107.7096  56.5664 12.62262787638725
GLOBALSTAR M088         
1 37740U 11033B   25103.55652103 -.00000057  00000+0  25925-3 0  9995
2 37740  51.9713 146.4566 0000365 109.2377  44.1820 12.62265432634234
GLOBALSTAR M091         
1 37741U 11033C   25104.01795168 -.00000096  00000+0  42492-4 0  9999
2 37741  51.9976 108.4910 0000531  81.5716 308.8659 12.62267029635348
GLOBALSTAR M085         
1 37742U 11033D   25104.15919272 -.00000104  00000+0 -10430-6 0  9999
2 37742  51.9873  59.1540 0000645  73.9177 298.8436 12.62267257636107
GLOBALSTAR M081         
1 37743U 11033E   25104.21219828 -.00000112  00000+0 -47565-4 0  9993
2 37743  51.9964  61.7403 0000549  91.6152  41.9541 12.62262676636147
GLOBALSTAR M089         
1 37744U 11033F   25104.17933306 -.00000076  00000+0  15451-3 0  9999
2 37744  51.9962  16.0816 0000393  80.0540  84.6105 12.62268576636850
